start=new Date('2022-05-09T00:00:00.000Z').valueOf();
sats=[{"TLE_LINE1":"1 48354U 21038B   22128.48452894 -.00001872  00000-0 -10676-3 0  9990","TIME_SYSTEM":"UTC","DECAY_DATE":null,"BSTAR":"-0.00010676000000","OBJECT_TYPE":"PAYLOAD","CENTER_NAME":"EARTH","PERIOD":"95.592","RA_OF_ASC_NODE":"171.8847","MEAN_MOTION_DOT":"-0.00001872","INCLINATION":"53.0552","GP_ID":"202984366","RCS_SIZE":"LARGE","EPHEMERIS_TYPE":"0","ARG_OF_PERICENTER":"44.8734","MEAN_MOTION":"15.06401728","MEAN_ANOMALY":"315.2402","LAUNCH_DATE":"2021-05-04","MEAN_MOTION_DDOT":"0.0000000000000","FILE":"3435376","APOAPSIS":"548.467","EPOCH":"2022-05-08T11:37:43.300416","SEMIMAJOR_AXIS":"6925.343","OBJECT_ID":"2021-038B","REF_FRAME":"TEME","PERIAPSIS":"545.950","ELEMENT_SET_NO":"999","OBJECT_NAME":"STARLINK-2674","ECCENTRICITY":"0.00018170","TLE_LINE2":"2 48354  53.0552 171.8847 0001817  44.8734 315.2402 15.06401728 56427","REV_AT_EPOCH":"5642","MEAN_ELEMENT_THEORY":"SGP4","NORAD_CAT_ID":"48354","CLASSIFICATION_TYPE":"U","SITE":"AFETR","COUNTRY_CODE":"US"},{"INCLINATION":"53.0535","GP_ID":"203015438","RCS_SIZE":"LARGE","RA_OF_ASC_NODE":"172.1904","PERIOD":"95.592","MEAN_MOTION_DOT":"0.00000888","CENTER_NAME":"EARTH","BSTAR":"0.00007848500000","OBJECT_TYPE":"PAYLOAD","DECAY_DATE":null,"TLE_LINE1":"1 48355U 21038C   22128.41449405  .00000888  00000-0  78485-4 0  9995","TIME_SYSTEM":"UTC","LAUNCH_DATE":"2021-05-04","MEAN_MOTION_DDOT":"0.0000000000000","MEAN_ANOMALY":"311.0576","MEAN_MOTION":"15.06397188","ARG_OF_PERICENTER":"49.0551","EPHEMERIS_TYPE":"0","REV_AT_EPOCH":"5582","TLE_LINE2":"2 48355  53.0535 172.1904 0001599  49.0551 311.0576 15.06397188 55821","OBJECT_NAME":"STARLINK-2635","ECCENTRICITY":"0.00015990","ELEMENT_SET_NO":"999","PERIAPSIS":"546.115","REF_FRAME":"TEME","SEMIMAJOR_AXIS":"6925.357","OBJECT_ID":"2021-038C","EPOCH":"2022-05-08T09:56:52.285920","APOAPSIS":"548.330","FILE":"3435746","SITE":"AFETR","COUNTRY_CODE":"US","NORAD_CAT_ID":"48355","CLASSIFICATION_TYPE":"U","MEAN_ELEMENT_THEORY":"SGP4"},{"ARG_OF_PERICENTER":"41.1979","EPHEMERIS_TYPE":"0","MEAN_MOTION_DDOT":"0.0000000000000","LAUNCH_DATE":"2021-05-04","MEAN_ANOMALY":"318.9153","MEAN_MOTION":"15.06386852","OBJECT_TYPE":"PAYLOAD","BSTAR":"0.00003267500000","DECAY_DATE":null,"TLE_LINE1":"1 48356U 21038D   22128.47716839  .00000205  00000-0  32675-4 0  9994","TIME_SYSTEM":"UTC","INCLINATION":"53.0529","GP_ID":"202984503","RCS_SIZE":"LARGE","MEAN_MOTION_DOT":"0.00000205","PERIOD":"95.593","RA_OF_ASC_NODE":"171.9115","CENTER_NAME":"EARTH","NORAD_CAT_ID":"48356","CLASSIFICATION_TYPE":"U","MEAN_ELEMENT_THEORY":"SGP4","SITE":"AFETR","COUNTRY_CODE":"US","REF_FRAME":"TEME","SEMIMAJOR_AXIS":"6925.389","OBJECT_ID":"2021-038D","EPOCH":"2022-05-08T11:27:07.348896","APOAPSIS":"548.574","FILE":"3435371","REV_AT_EPOCH":"5641","TLE_LINE2":"2 48356  53.0529 171.9115 0001906  41.1979 318.9153 15.06386852 56414","OBJECT_NAME":"STARLINK-2637","ECCENTRICITY":"0.00019060","PERIAPSIS":"545.934","ELEMENT_SET_NO":"999"},{"SEMIMAJOR_AXIS":"6925.343","OBJECT_ID":"2021-038E","REF_FRAME":"TEME","FILE":"3435746","APOAPSIS":"548.324","EPOCH":"2022-05-08T12:57:20.462688","TLE_LINE2":"2 48357  53.0545 171.6356 0001611  54.8221 305.2919 15.06401714 55841","REV_AT_EPOCH":"5584","PERIAPSIS":"546.093","ELEMENT_SET_NO":"999","OBJECT_NAME":"STARLINK-2636","ECCENTRICITY":"0.00016110","CLASSIFICATION_TYPE":"U","NORAD_CAT_ID":"48357","MEAN_ELEMENT_THEORY":"SGP4","SITE":"AFETR","COUNTRY_CODE":"US","BSTAR":"0.00016723000000","OBJECT_TYPE":"PAYLOAD","TLE_LINE1":"1 48357U 21038E   22128.53982017  .00002210  00000-0  16723-3 0  9998","TIME_SYSTEM":"UTC","DECAY_DATE":null,"GP_ID":"203016433","INCLINATION":"53.0545","RCS_SIZE":"LARGE","CENTER_NAME":"EARTH","MEAN_MOTION_DOT":"0.00002210","PERIOD":"95.592","RA_OF_ASC_NODE":"171.6356","ARG_OF_PERICENTER":"54.8221","EPHEMERIS_TYPE":"0","LAUNCH_DATE":"2021-05-04","MEAN_ANOMALY":"305.2919","MEAN_MOTION_DDOT":"0.0000000000000","MEAN_MOTION":"15.06401714"},{"TLE_LINE2":"2 48358  53.0548 172.2280 0002172  44.8541 315.2623 15.06406335 55819","REV_AT_EPOCH":"5581","ECCENTRICITY":"0.00021720","OBJECT_NAME":"STARLINK-2624","PERIAPSIS":"545.690","ELEMENT_SET_NO":"999","REF_FRAME":"TEME","OBJECT_ID":"2021-038F","SEMIMAJOR_AXIS":"6925.329","EPOCH":"2022-05-08T09:40:56.811648","APOAPSIS":"548.698","FILE":"3435746","COUNTRY_CODE":"US","SITE":"AFETR","CLASSIFICATION_TYPE":"U","NORAD_CAT_ID":"48358","MEAN_ELEMENT_THEORY":"SGP4","RCS_SIZE":"LARGE","GP_ID":"203016190","INCLINATION":"53.0548","PERIOD":"95.592","RA_OF_ASC_NODE":"172.2280","MEAN_MOTION_DOT":"0.00001235","CENTER_NAME":"EARTH","BSTAR":"0.00010180000000","OBJECT_TYPE":"PAYLOAD","DECAY_DATE":null,"TIME_SYSTEM":"UTC","TLE_LINE1":"1 48358U 21038F   22128.40343532  .00001235  00000-0  10180-3 0  9995","MEAN_MOTION_DDOT":"0.0000000000000","LAUNCH_DATE":"2021-05-04","MEAN_ANOMALY":"315.2623","MEAN_MOTION":"15.06406335","ARG_OF_PERICENTER":"44.8541","EPHEMERIS_TYPE":"0"},{"DECAY_DATE":null,"TIME_SYSTEM":"UTC","TLE_LINE1":"1 48359U 21038G   22128.53244580 -.00000138  00000-0  96510-5 0  9998","BSTAR":"0.00000965100000","OBJECT_TYPE":"PAYLOAD","PERIOD":"95.592","RA_OF_ASC_NODE":"171.6641","MEAN_MOTION_DOT":"-0.00000138","CENTER_NAME":"EARTH","RCS_SIZE":"LARGE","GP_ID":"203014939","INCLINATION":"53.0525","EPHEMERIS_TYPE":"0","ARG_OF_PERICENTER":"51.9919","MEAN_MOTION":"15.06397812","MEAN_ANOMALY":"308.1230","LAUNCH_DATE":"2021-05-04","MEAN_MOTION_DDOT":"0.0000000000000","APOAPSIS":"548.450","EPOCH":"2022-05-08T12:46:43.317120","FILE":"3435746","REF_FRAME":"TEME","OBJECT_ID":"2021-038G","SEMIMAJOR_AXIS":"6925.355","ECCENTRICITY":"0.00017760","OBJECT_NAME":"STARLINK-2628","PERIAPSIS":"545.990","ELEMENT_SET_NO":"999","TLE_LINE2":"2 48359  53.0525 171.6641 0001776  51.9919 308.1230 15.06397812 55832","REV_AT_EPOCH":"5583","MEAN_ELEMENT_THEORY":"SGP4","NORAD_CAT_ID":"48359","CLASSIFICATION_TYPE":"U","COUNTRY_CODE":"US","SITE":"AFETR"},{"MEAN_ELEMENT_THEORY":"SGP4","NORAD_CAT_ID":"48360","CLASSIFICATION_TYPE":"U","COUNTRY_CODE":"US","SITE":"AFETR","FILE":"3436031","APOAPSIS":"548.482","EPOCH":"2022-05-08T12:41:25.459296","OBJECT_ID":"2021-038H","SEMIMAJOR_AXIS":"6925.352","REF_FRAME":"TEME","ELEMENT_SET_NO":"999","PERIAPSIS":"545.953","ECCENTRICITY":"0.00018260","OBJECT_NAME":"STARLINK-2622","TLE_LINE2":"2 48360  53.0546 171.6888 0001826  51.3151 308.8001 15.06398831 56429","REV_AT_EPOCH":"5642","EPHEMERIS_TYPE":"0","ARG_OF_PERICENTER":"51.3151","MEAN_MOTION":"15.06398831","LAUNCH_DATE":"2021-05-04","MEAN_ANOMALY":"308.8001","MEAN_MOTION_DDOT":"0.0000000000000","TIME_SYSTEM":"UTC","TLE_LINE1":"1 48360U 21038H   22128.52876689  .00000768  00000-0  70448-4 0  9999","DECAY_DATE":null,"BSTAR":"0.00007044800000","OBJECT_TYPE":"PAYLOAD","CENTER_NAME":"EARTH","MEAN_MOTION_DOT":"0.00000768","PERIOD":"95.592","RA_OF_ASC_NODE":"171.6888","RCS_SIZE":"LARGE","GP_ID":"203025656","INCLINATION":"53.0546"},{"OBJECT_NAME":"STARLINK-2591","ECCENTRICITY":"0.00016500","ELEMENT_SET_NO":"999","PERIAPSIS":"546.071","TLE_LINE2":"2 48361  53.0528 171.9763 0001650  51.9421 308.1716 15.06400074 55828","REV_AT_EPOCH":"5582","APOAPSIS":"548.356","EPOCH":"2022-05-08T11:00:34.509600","FILE":"3435746","REF_FRAME":"TEME","SEMIMAJOR_AXIS":"6925.348","OBJECT_ID":"2021-038J","SITE":"AFETR","COUNTRY_CODE":"US","MEAN_ELEMENT_THEORY":"SGP4","NORAD_CAT_ID":"48361","CLASSIFICATION_TYPE":"U","RA_OF_ASC_NODE":"171.9763","PERIOD":"95.592","MEAN_MOTION_DOT":"0.00001198","CENTER_NAME":"EARTH","GP_ID":"203015934","INCLINATION":"53.0528","RCS_SIZE":"LARGE","DECAY_DATE":null,"TLE_LINE1":"1 48361U 21038J   22128.45873275  .00001198  00000-0  99304-4 0  9990","TIME_SYSTEM":"UTC","OBJECT_TYPE":"PAYLOAD","BSTAR":"0.00009930400000","MEAN_MOTION":"15.06400074","MEAN_MOTION_DDOT":"0.0000000000000","LAUNCH_DATE":"2021-05-04","MEAN_ANOMALY":"308.1716","EPHEMERIS_TYPE":"0","ARG_OF_PERICENTER":"51.9421"},{"COUNTRY_CODE":"US","SITE":"AFETR","NORAD_CAT_ID":"48362","CLASSIFICATION_TYPE":"U","MEAN_ELEMENT_THEORY":"SGP4","REV_AT_EPOCH":"5582","TLE_LINE2":"2 48362  53.0546 172.1874 0002043  39.3366 320.7771 15.06397748 55824","ECCENTRICITY":"0.00020430","OBJECT_NAME":"STARLINK-2578","PERIAPSIS":"545.806","ELEMENT_SET_NO":"999","REF_FRAME":"TEME","OBJECT_ID":"2021-038K","SEMIMAJOR_AXIS":"6925.355","APOAPSIS":"548.635","EPOCH":"2022-05-08T10:00:49.466880","FILE":"3435746","LAUNCH_DATE":"2021-05-04","MEAN_MOTION_DDOT":"0.0000000000000","MEAN_ANOMALY":"320.7771","MEAN_MOTION":"15.06397748","ARG_OF_PERICENTER":"39.3366","EPHEMERIS_TYPE":"0","RCS_SIZE":"LARGE","GP_ID":"203016690","INCLINATION":"53.0546","RA_OF_ASC_NODE":"172.1874","PERIOD":"95.592","MEAN_MOTION_DOT":"-0.00000129","CENTER_NAME":"EARTH","BSTAR":"0.00001025300000","OBJECT_TYPE":"PAYLOAD","DECAY_DATE":null,"TIME_SYSTEM":"UTC","TLE_LINE1":"1 48362U 21038K   22128.41723920 -.00000129  00000-0  10253-4 0  9998"},{"NORAD_CAT_ID":"48363","CLASSIFICATION_TYPE":"U","MEAN_ELEMENT_THEORY":"SGP4","SITE":"AFETR","COUNTRY_CODE":"US","SEMIMAJOR_AXIS":"6925.305","OBJECT_ID":"2021-038L","REF_FRAME":"TEME","FILE":"3435409","EPOCH":"2022-05-08T12:02:15.986688","APOAPSIS":"548.304","TLE_LINE2":"2 48363  53.0542 166.7954 0001638  57.2957 302.8190 15.06414169 56490","REV_AT_EPOCH":"5649","PERIAPSIS":"546.036","ELEMENT_SET_NO":"999","OBJECT_NAME":"STARLINK-2626","ECCENTRICITY":"0.00016380","ARG_OF_PERICENTER":"57.2957","EPHEMERIS_TYPE":"0","LAUNCH_DATE":"2021-05-04","MEAN_MOTION_DDOT":"0.0000000000000","MEAN_ANOMALY":"302.8190","MEAN_MOTION":"15.06414169","OBJECT_TYPE":"PAYLOAD","BSTAR":"0.00002430800000","TLE_LINE1":"1 48363U 21038L   22128.50157392  .00000081  00000-0  24308-4 0  9995","TIME_SYSTEM":"UTC","DECAY_DATE":null,"GP_ID":"202985370","INCLINATION":"53.0542","RCS_SIZE":"LARGE","CENTER_NAME":"EARTH","RA_OF_ASC_NODE":"166.7954","PERIOD":"95.591","MEAN_MOTION_DOT":"0.00000081"}];
